{"type": "FeatureCollection", "features": [ {"type": "Feature", "properties": {"norad_id": 66860, "name": "STARLINK-35987", "group": "last-30-days", "lat": -36.07507827049402, "lon": 8.651434227977234, "alt_km": 377.56585636561704, "timestamp": "2025-12-22T22:44:19.651791+00:00", "meta": {"OBJECT_NAME": "STARLINK-35987", "OBJECT_ID": "2025-281N", "EPOCH": "2025-12-22T14:00:01.999872", "MEAN_MOTION": 15.65791234, "ECCENTRICITY": 0.00013249, "INCLINATION": 43.0007, "RA_OF_ASC_NODE": 62.2553, "ARG_OF_PERICENTER": 287.4653, "MEAN_ANOMALY": 119.05, "EPHEMERIS_TYPE": 0, "CLASSIFICATION_TYPE": "U", "NORAD_CAT_ID": 66860, "ELEMENT_SET_NO": 999, "REV_AT_EPOCH": 297, "BSTAR": -0.021355597, "MEAN_MOTION_DOT": -0.01964185, "MEAN_MOTION_DDOT": 0}, "tle": {"line1": "1 66860U 25281N   25356.58335648 -.01964185  00000+0 -21356-1 0  9990", "line2": "2 66860  43.0007  62.2553 0001324 287.4653 119.0500 15.65791234  2977"}}, "geometry": {"type": "Point", "coordinates": [8.651434227977234, -36.07507827049402]}}, {"type": "Feature", "properties": {"norad_id": 66861, "name": "STARLINK-35991", "group": "last-30-days", "lat": -38.3362760375898, "lon": 2.031966795056314, "alt_km": 377.6320548573003, "timestamp": "2025-12-22T22:44:19.651801+00:00", "meta": {"OBJECT_NAME": "STARLINK-35991", "OBJECT_ID": "2025-281P", "EPOCH": "2025-12-22T14:00:01.999872", "MEAN_MOTION": 15.65787593, "ECCENTRICITY": 0.00013681, "INCLINATION": 43.0004, "RA_OF_ASC_NODE": 62.2695, "ARG_OF_PERICENTER": 286.8523, "MEAN_ANOMALY": 113.9128, "EPHEMERIS_TYPE": 0, "CLASSIFICATION_TYPE": "U", "NORAD_CAT_ID": 66861, "ELEMENT_SET_NO": 999, "REV_AT_EPOCH": 297, "BSTAR": -0.021288521, "MEAN_MOTION_DOT": -0.01958526, "MEAN_MOTION_DDOT": 0}, "tle": {"line1": "1 66861U 25281P   25356.58335648 -.01958526  00000+0 -21289-1 0  9998", "line2": "2 66861  43.0004  62.2695 0001368 286.8523 113.9128 15.65787593  2971"}}, "geometry": {"type": "Point", "coordinates": [2.031966795056314, -38.3362760375898]}}, {"type": "Feature", "properties": {"norad_id": 66862, "name": "STARLINK-35974", "group": "last-30-days", "lat": -39.00513620996724, "lon": -0.26273407739255333, "alt_km": 377.6942421048898, "timestamp": "2025-12-22T22:44:19.651811+00:00", "meta": {"OBJECT_NAME": "STARLINK-35974", "OBJECT_ID": "2025-281Q", "EPOCH": "2025-12-22T14:00:01.999872", "MEAN_MOTION": 15.65784862, "ECCENTRICITY": 0.00013138, "INCLINATION": 43.0006, "RA_OF_ASC_NODE": 62.2747, "ARG_OF_PERICENTER": 285.7002, "MEAN_ANOMALY": 113.1465, "EPHEMERIS_TYPE": 0, "CLASSIFICATION_TYPE": "U", "NORAD_CAT_ID": 66862, "ELEMENT_SET_NO": 999, "REV_AT_EPOCH": 287, "BSTAR": -0.021221031, "MEAN_MOTION_DOT": -0.0195282, "MEAN_MOTION_DDOT": 0}, "tle": {"line1": "1 66862U 25281Q   25356.58335648 -.01952820  00000+0 -21221-1 0  9996", "line2": "2 66862  43.0006  62.2747 0001313 285.7002 113.1465 15.65784862  2873"}}, "geometry": {"type": "Point", "coordinates": [-0.26273407739255333, -39.00513620996724]}}, {"type": "Feature", "properties": {"norad_id": 66863, "name": "STARLINK-36134", "group": "last-30-days", "lat": -37.62518211678729, "lon": 4.280132076109495, "alt_km": 377.5688019177069, "timestamp": "2025-12-22T22:44:19.651821+00:00", "meta": {"OBJECT_NAME": "STARLINK-36134", "OBJECT_ID": "2025-281R", "EPOCH": "2025-12-22T14:00:01.999872", "MEAN_MOTION": 15.65786392, "ECCENTRICITY": 0.00014047, "INCLINATION": 43.0007, "RA_OF_ASC_NODE": 62.2653, "ARG_OF_PERICENTER": 289.8253, "MEAN_ANOMALY": 112.8556, "EPHEMERIS_TYPE": 0, "CLASSIFICATION_TYPE": "U", "NORAD_CAT_ID": 66863, "ELEMENT_SET_NO": 999, "REV_AT_EPOCH": 297, "BSTAR": -0.021259923, "MEAN_MOTION_DOT": -0.01956149, "MEAN_MOTION_DDOT": 0}, "tle": {"line1": "1 66863U 25281R   25356.58335648 -.01956149  00000+0 -21260-1 0  9998", "line2": "2 66863  43.0007  62.2653 0001404 289.8253 112.8556 15.65786392  2973"}}, "geometry": {"type": "Point", "coordinates": [4.280132076109495, -37.62518211678729]}}, {"type": "Feature", "properties": {"norad_id": 66864, "name": "STARLINK-36070", "group": "last-30-days", "lat": -36.86998840742003, "lon": 6.487949009747454, "alt_km": 377.55676921068334, "timestamp": "2025-12-22T22:44:19.651831+00:00", "meta": {"OBJECT_NAME": "STARLINK-36070", "OBJECT_ID": "2025-281S", "EPOCH": "2025-12-22T14:00:01.999872", "MEAN_MOTION": 15.65787194, "ECCENTRICITY": 0.00013879, "INCLINATION": 43.0005, "RA_OF_ASC_NODE": 62.2601, "ARG_OF_PERICENTER": 287.9534, "MEAN_ANOMALY": 116.6465, "EPHEMERIS_TYPE": 0, "CLASSIFICATION_TYPE": "U", "NORAD_CAT_ID": 66864, "ELEMENT_SET_NO": 999, "REV_AT_EPOCH": 300, "BSTAR": -0.02130464, "MEAN_MOTION_DOT": -0.01959819, "MEAN_MOTION_DDOT": 0}, "tle": {"line1": "1 66864U 25281S   25356.58335648 -.01959819  00000+0 -21305-1 0  9996", "line2": "2 66864  43.0005  62.2601 0001387 287.9534 116.6465 15.65787194  3003"}}, "geometry": {"type": "Point", "coordinates": [6.487949009747454, -36.86998840742003]}}, {"type": "Feature", "properties": {"norad_id": 66865, "name": "STARLINK-36117", "group": "last-30-days", "lat": -35.24346749346617, "lon": 10.76710997410768, "alt_km": 377.50272046365444, "timestamp": "2025-12-22T22:44:19.651841+00:00", "meta": {"OBJECT_NAME": "STARLINK-36117", "OBJECT_ID": "2025-281T", "EPOCH": "2025-12-22T14:00:01.999872", "MEAN_MOTION": 15.65786745, "ECCENTRICITY": 0.00013407, "INCLINATION": 43.0008, "RA_OF_ASC_NODE": 62.2512, "ARG_OF_PERICENTER": 289.4046, "MEAN_ANOMALY": 119.0269, "EPHEMERIS_TYPE": 0, "CLASSIFICATION_TYPE": "U", "NORAD_CAT_ID": 66865, "ELEMENT_SET_NO": 999, "REV_AT_EPOCH": 297, "BSTAR": -0.021258386, "MEAN_MOTION_DOT": -0.01956002, "MEAN_MOTION_DDOT": 0}, "tle": {"line1": "1 66865U 25281T   25356.58335648 -.01956002  00000+0 -21258-1 0  9995", "line2": "2 66865  43.0008  62.2512 0001340 289.4046 119.0269 15.65786745  2977"}}, "geometry": {"type": "Point", "coordinates": [10.76710997410768, -35.24346749346617]}}, {"type": "Feature", "properties": {"norad_id": 66866, "name": "STARLINK-36126", "group": "last-30-days", "lat": -34.37024477016294, "lon": 12.84671586176011, "alt_km": 377.4853965739303, "timestamp": "2025-12-22T22:44:19.651852+00:00", "meta": {"OBJECT_NAME": "STARLINK-36126", "OBJECT_ID": "2025-281U", "EPOCH": "2025-12-22T20:00:01.999008", "MEAN_MOTION": 15.64749657, "ECCENTRICITY": 0.0001542, "INCLINATION": 43.0003, "RA_OF_ASC_NODE": 60.7487, "ARG_OF_PERICENTER": 283.0301, "MEAN_ANOMALY": 97.7398, "EPHEMERIS_TYPE": 0, "CLASSIFICATION_TYPE": "U", "NORAD_CAT_ID": 66866, "ELEMENT_SET_NO": 999, "REV_AT_EPOCH": 304, "BSTAR": -0.022947, "MEAN_MOTION_DOT": -0.02016348, "MEAN_MOTION_DDOT": 0}, "tle": {"line1": "1 66866U 25281U   25356.83335647 -.02016348  00000+0 -22947-1 0  9990", "line2": "2 66866  43.0003  60.7487 0001542 283.0301  97.7398 15.64749657  3049"}}, "geometry": {"type": "Point", "coordinates": [12.84671586176011, -34.37024477016294]}}, {"type": "Feature", "properties": {"norad_id": 66867, "name": "STARLINK-36101", "group": "last-30-days", "lat": -33.46739219045312, "lon": 14.875482229561609, "alt_km": 377.53621283995835, "timestamp": "2025-12-22T22:44:19.651864+00:00", "meta": {"OBJECT_NAME": "STARLINK-36101", "OBJECT_ID": "2025-281V", "EPOCH": "2025-12-22T20:00:01.999008", "MEAN_MOTION": 15.64745887, "ECCENTRICITY": 0.0001424, "INCLINATION": 43.0004, "RA_OF_ASC_NODE": 60.7441, "ARG_OF_PERICENTER": 281.8375, "MEAN_ANOMALY": 100.8492, "EPHEMERIS_TYPE": 0, "CLASSIFICATION_TYPE": "U", "NORAD_CAT_ID": 66867, "ELEMENT_SET_NO": 999, "REV_AT_EPOCH": 285, "BSTAR": -0.022863, "MEAN_MOTION_DOT": -0.02009541, "MEAN_MOTION_DDOT": 0}, "tle": {"line1": "1 66867U 25281V   25356.83335647 -.02009541  00000+0 -22863-1 0  9995", "line2": "2 66867  43.0004  60.7441 0001424 281.8375 100.8492 15.64745887  2857"}}, "geometry": {"type": "Point", "coordinates": [14.875482229561609, -33.46739219045312]}}, {"type": "Feature", "properties": {"norad_id": 66868, "name": "STARLINK-36108", "group": "last-30-days", "lat": -32.53128870447852, "lon": 16.86251733663759, "alt_km": 377.47095476986306, "timestamp": "2025-12-22T22:44:19.651876+00:00", "meta": {"OBJECT_NAME": "STARLINK-36108", "OBJECT_ID": "2025-281W", "EPOCH": "2025-12-22T20:00:01.999008", "MEAN_MOTION": 15.647466, "ECCENTRICITY": 0.0001461, "INCLINATION": 43.0005, "RA_OF_ASC_NODE": 60.7389, "ARG_OF_PERICENTER": 282.0308, "MEAN_ANOMALY": 102.5725, "EPHEMERIS_TYPE": 0, "CLASSIFICATION_TYPE": "U", "NORAD_CAT_ID": 66868, "ELEMENT_SET_NO": 999, "REV_AT_EPOCH": 285, "BSTAR": -0.022872, "MEAN_MOTION_DOT": -0.02010249, "MEAN_MOTION_DDOT": 0}, "tle": {"line1": "1 66868U 25281W   25356.83335647 -.02010249  00000+0 -22872-1 0  9993", "line2": "2 66868  43.0005  60.7389 0001461 282.0308 102.5725 15.64746600  2852"}}, "geometry": {"type": "Point", "coordinates": [16.86251733663759, -32.53128870447852]}}, {"type": "Feature", "properties": {"norad_id": 66869, "name": "STARLINK-36092", "group": "last-30-days", "lat": -31.564036658609005, "lon": 18.809238060343304, "alt_km": 377.4244076812438, "timestamp": "2025-12-22T22:44:19.651886+00:00", "meta": {"OBJECT_NAME": "STARLINK-36092", "OBJECT_ID": "2025-281X", "EPOCH": "2025-12-22T20:00:01.999008", "MEAN_MOTION": 15.64754958, "ECCENTRICITY": 0.0001432, "INCLINATION": 43.0007, "RA_OF_ASC_NODE": 60.7342, "ARG_OF_PERICENTER": 283.1361, "MEAN_ANOMALY": 103.3828, "EPHEMERIS_TYPE": 0, "CLASSIFICATION_TYPE": "U", "NORAD_CAT_ID": 66869, "ELEMENT_SET_NO": 999, "REV_AT_EPOCH": 304, "BSTAR": -0.023034, "MEAN_MOTION_DOT": -0.02023332, "MEAN_MOTION_DDOT": 0}, "tle": {"line1": "1 66869U 25281X   25356.83335647 -.02023332  00000+0 -23034-1 0  9992", "line2": "2 66869  43.0007  60.7342 0001432 283.1361 103.3828 15.64754958  3043"}}, "geometry": {"type": "Point", "coordinates": [18.809238060343304, -31.564036658609005]}}]}